CCSDS_OMM_VERS = 2.0
CREATION_DATE  = 
ORIGINATOR     = 

OBJECT_NAME    = STARLINK-35610
OBJECT_ID      = 2025-259G
CENTER_NAME    = EARTH
REF_FRAME      = TEME
TIME_SYSTEM    = UTC
MEAN_ELEMENT_THEORY = SGP/SGP4

EPOCH          = 2025-12-09T16:00:01.999584
MEAN_MOTION    = 15.40694853
ECCENTRICITY   = .0001449
INCLINATION    = 43.0012
RA_OF_ASC_NODE = 65.6396
ARG_OF_PERICENTER = 275.5101
MEAN_ANOMALY   = 317.9294

EPHEMERIS_TYPE = 0
CLASSIFICATION_TYPE = U
NORAD_CAT_ID   = 66428
ELEMENT_SET_NO = 999
REV_AT_EPOCH   = 578
BSTAR          = -.29512742E-3
MEAN_MOTION_DOT = -.12609E-3
MEAN_MOTION_DDOT = 0

CCSDS_OMM_VERS = 2.0
CREATION_DATE  = 
ORIGINATOR     = 

OBJECT_NAME    = STARLINK-35533
OBJECT_ID      = 2025-259H
CENTER_NAME    = EARTH
REF_FRAME      = TEME
TIME_SYSTEM    = UTC
MEAN_ELEMENT_THEORY = SGP/SGP4

EPOCH          = 2025-12-09T16:00:01.999584
MEAN_MOTION    = 15.40609981
ECCENTRICITY   = .00015617
INCLINATION    = 43.0007
RA_OF_ASC_NODE = 65.6077
ARG_OF_PERICENTER = 292.9035
MEAN_ANOMALY   = 313.0038

EPHEMERIS_TYPE = 0
CLASSIFICATION_TYPE = U
NORAD_CAT_ID   = 66429
ELEMENT_SET_NO = 999
REV_AT_EPOCH   = 578
BSTAR          = .33292006E-2
MEAN_MOTION_DOT = .140941E-2
MEAN_MOTION_DDOT = 0

CCSDS_OMM_VERS = 2.0
CREATION_DATE  = 
ORIGINATOR     = 

OBJECT_NAME    = STARLINK-35470
OBJECT_ID      = 2025-259J
CENTER_NAME    = EARTH
REF_FRAME      = TEME
TIME_SYSTEM    = UTC
MEAN_ELEMENT_THEORY = SGP/SGP4

EPOCH          = 2025-12-09T16:00:01.999584
MEAN_MOTION    = 15.40613178
ECCENTRICITY   = .00012973
INCLINATION    = 43.0009
RA_OF_ASC_NODE = 65.5781
ARG_OF_PERICENTER = 285.8824
MEAN_ANOMALY   = 332.4416

EPHEMERIS_TYPE = 0
CLASSIFICATION_TYPE = U
NORAD_CAT_ID   = 66430
ELEMENT_SET_NO = 999
REV_AT_EPOCH   = 578
BSTAR          = .356683E-2
MEAN_MOTION_DOT = .151245E-2
MEAN_MOTION_DDOT = 0

CCSDS_OMM_VERS = 2.0
CREATION_DATE  = 
ORIGINATOR     = 

OBJECT_NAME    = STARLINK-35439
OBJECT_ID      = 2025-259K
CENTER_NAME    = EARTH
REF_FRAME      = TEME
TIME_SYSTEM    = UTC
MEAN_ELEMENT_THEORY = SGP/SGP4

EPOCH          = 2025-12-09T16:00:01.999584
MEAN_MOTION    = 15.40703643
ECCENTRICITY   = .00010946
INCLINATION    = 43.0007
RA_OF_ASC_NODE = 65.5467
ARG_OF_PERICENTER = 288.0148
MEAN_ANOMALY   = 342.7021

EPHEMERIS_TYPE = 0
CLASSIFICATION_TYPE = U
NORAD_CAT_ID   = 66431
ELEMENT_SET_NO = 999
REV_AT_EPOCH   = 578
BSTAR          = -.79321495E-4
MEAN_MOTION_DOT = -.3615E-4
MEAN_MOTION_DDOT = 0

CCSDS_OMM_VERS = 2.0
CREATION_DATE  = 
ORIGINATOR     = 

OBJECT_NAME    = STARLINK-35446
OBJECT_ID      = 2025-259L
CENTER_NAME    = EARTH
REF_FRAME      = TEME
TIME_SYSTEM    = UTC
MEAN_ELEMENT_THEORY = SGP/SGP4

EPOCH          = 2025-12-09T16:00:01.999584
MEAN_MOTION    = 15.40603055
ECCENTRICITY   = .0001057
INCLINATION    = 43.0005
RA_OF_ASC_NODE = 65.5154
ARG_OF_PERICENTER = 261.8000
MEAN_ANOMALY   = 21.4352

EPHEMERIS_TYPE = 0
CLASSIFICATION_TYPE = U
NORAD_CAT_ID   = 66432
ELEMENT_SET_NO = 999
REV_AT_EPOCH   = 578
BSTAR          = .34450098E-2
MEAN_MOTION_DOT = .145917E-2
MEAN_MOTION_DDOT = 0

CCSDS_OMM_VERS = 2.0
CREATION_DATE  = 
ORIGINATOR     = 

OBJECT_NAME    = STARLINK-35457
OBJECT_ID      = 2025-259M
CENTER_NAME    = EARTH
REF_FRAME      = TEME
TIME_SYSTEM    = UTC
MEAN_ELEMENT_THEORY = SGP/SGP4

EPOCH          = 2025-12-09T16:00:01.999584
MEAN_MOTION    = 15.40607256
ECCENTRICITY   = .00011448
INCLINATION    = 43.0006
RA_OF_ASC_NODE = 65.4860
ARG_OF_PERICENTER = 262.2240
MEAN_ANOMALY   = 33.4394

EPHEMERIS_TYPE = 0
CLASSIFICATION_TYPE = U
NORAD_CAT_ID   = 66433
ELEMENT_SET_NO = 999
REV_AT_EPOCH   = 578
BSTAR          = .35423288E-2
MEAN_MOTION_DOT = .150152E-2
MEAN_MOTION_DDOT = 0

CCSDS_OMM_VERS = 2.0
CREATION_DATE  = 
ORIGINATOR     = 

OBJECT_NAME    = STARLINK-35389
OBJECT_ID      = 2025-259N
CENTER_NAME    = EARTH
REF_FRAME      = TEME
TIME_SYSTEM    = UTC
MEAN_ELEMENT_THEORY = SGP/SGP4

EPOCH          = 2025-12-09T16:00:01.999584
MEAN_MOTION    = 15.40666001
ECCENTRICITY   = .0000911
INCLINATION    = 43.0003
RA_OF_ASC_NODE = 65.4560
ARG_OF_PERICENTER = 276.0063
MEAN_ANOMALY   = 32.0765

EPHEMERIS_TYPE = 0
CLASSIFICATION_TYPE = U
NORAD_CAT_ID   = 66434
ELEMENT_SET_NO = 999
REV_AT_EPOCH   = 578
BSTAR          = .15175961E-2
MEAN_MOTION_DOT = .63547E-3
MEAN_MOTION_DDOT = 0

CCSDS_OMM_VERS = 2.0
CREATION_DATE  = 
ORIGINATOR     = 

OBJECT_NAME    = STARLINK-35502
OBJECT_ID      = 2025-259P
CENTER_NAME    = EARTH
REF_FRAME      = TEME
TIME_SYSTEM    = UTC
MEAN_ELEMENT_THEORY = SGP/SGP4

EPOCH          = 2025-12-09T16:00:01.999584
MEAN_MOTION    = 15.40608472
ECCENTRICITY   = .00009865
INCLINATION    = 43.0004
RA_OF_ASC_NODE = 65.4257
ARG_OF_PERICENTER = 278.1103
MEAN_ANOMALY   = 42.4440

EPHEMERIS_TYPE = 0
CLASSIFICATION_TYPE = U
NORAD_CAT_ID   = 66435
ELEMENT_SET_NO = 999
REV_AT_EPOCH   = 578
BSTAR          = .36408986E-2
MEAN_MOTION_DOT = .154433E-2
MEAN_MOTION_DDOT = 0

CCSDS_OMM_VERS = 2.0
CREATION_DATE  = 
ORIGINATOR     = 

OBJECT_NAME    = STARLINK-35501
OBJECT_ID      = 2025-259Q
CENTER_NAME    = EARTH
REF_FRAME      = TEME
TIME_SYSTEM    = UTC
MEAN_ELEMENT_THEORY = SGP/SGP4

EPOCH          = 2025-12-09T16:00:01.999584
MEAN_MOTION    = 15.40627142
ECCENTRICITY   = .00012497
INCLINATION    = 43.0003
RA_OF_ASC_NODE = 65.3642
ARG_OF_PERICENTER = 305.0721
MEAN_ANOMALY   = 40.3390

EPHEMERIS_TYPE = 0
CLASSIFICATION_TYPE = U
NORAD_CAT_ID   = 66436
ELEMENT_SET_NO = 999
REV_AT_EPOCH   = 578
BSTAR          = .24368857E-2
MEAN_MOTION_DOT = .102621E-2
MEAN_MOTION_DDOT = 0

CCSDS_OMM_VERS = 2.0
CREATION_DATE  = 
ORIGINATOR     = 

OBJECT_NAME    = STARLINK-35474
OBJECT_ID      = 2025-259R
CENTER_NAME    = EARTH
REF_FRAME      = TEME
TIME_SYSTEM    = UTC
MEAN_ELEMENT_THEORY = SGP/SGP4

EPOCH          = 2025-12-09T16:00:01.999584
MEAN_MOTION    = 15.40751204
ECCENTRICITY   = .00014412
INCLINATION    = 43.0001
RA_OF_ASC_NODE = 65.3334
ARG_OF_PERICENTER = 289.5290
MEAN_ANOMALY   = 68.2807

EPHEMERIS_TYPE = 0
CLASSIFICATION_TYPE = U
NORAD_CAT_ID   = 66437
ELEMENT_SET_NO = 999
REV_AT_EPOCH   = 578
BSTAR          = -.29098973E-2
MEAN_MOTION_DOT = -.120167E-2
MEAN_MOTION_DDOT = 0

CCSDS_OMM_VERS = 2.0
CREATION_DATE  = 
ORIGINATOR     = 

OBJECT_NAME    = STARLINK-34681
OBJECT_ID      = 2025-259S
CENTER_NAME    = EARTH
REF_FRAME      = TEME
TIME_SYSTEM    = UTC
MEAN_ELEMENT_THEORY = SGP/SGP4

EPOCH          = 2025-12-09T16:00:01.999584
MEAN_MOTION    = 15.42567890
ECCENTRICITY   = .00015183
INCLINATION    = 43.0002
RA_OF_ASC_NODE = 65.3070
ARG_OF_PERICENTER = 287.2323
MEAN_ANOMALY   = 81.8207

EPHEMERIS_TYPE = 0
CLASSIFICATION_TYPE = U
NORAD_CAT_ID   = 66438
ELEMENT_SET_NO = 999
REV_AT_EPOCH   = 567
BSTAR          = -.57877462E-1
MEAN_MOTION_DOT = -.2299456E-1
MEAN_MOTION_DDOT = 0

CCSDS_OMM_VERS = 2.0
CREATION_DATE  = 
ORIGINATOR     = 

OBJECT_NAME    = STARLINK-35327
OBJECT_ID      = 2025-259T
CENTER_NAME    = EARTH
REF_FRAME      = TEME
TIME_SYSTEM    = UTC
MEAN_ELEMENT_THEORY = SGP/SGP4

EPOCH          = 2025-12-09T16:00:01.999584
MEAN_MOTION    = 15.40611685
ECCENTRICITY   = .00008004
INCLINATION    = 43.0004
RA_OF_ASC_NODE = 65.3972
ARG_OF_PERICENTER = 300.0096
MEAN_ANOMALY   = 32.9085

EPHEMERIS_TYPE = 0
CLASSIFICATION_TYPE = U
NORAD_CAT_ID   = 66439
ELEMENT_SET_NO = 999
REV_AT_EPOCH   = 578
BSTAR          = .29706295E-2
MEAN_MOTION_DOT = .125479E-2
MEAN_MOTION_DDOT = 0

