STARLINK-35610          
1 66428U 25259G   25343.66668981 -.00012609  00000+0 -29513-3 0  9998
2 66428  43.0012  65.6396 0001449 275.5101 317.9294 15.40694853  5782
STARLINK-35533          
1 66429U 25259H   25343.66668981  .00140941  00000+0  33292-2 0  9996
2 66429  43.0007  65.6077 0001561 292.9035 313.0038 15.40609981  5788
STARLINK-35470          
1 66430U 25259J   25343.66668981  .00151245  00000+0  35668-2 0  9996
2 66430  43.0009  65.5781 0001297 285.8824 332.4416 15.40613178  5784
STARLINK-35439          
1 66431U 25259K   25343.66668981 -.00003615  00000+0 -79321-4 0  9992
2 66431  43.0007  65.5467 0001094 288.0148 342.7021 15.40703643  5786
STARLINK-35446          
1 66432U 25259L   25343.66668981  .00145917  00000+0  34450-2 0  9995
2 66432  43.0005  65.5154 0001057 261.8000  21.4352 15.40603055  5787
STARLINK-35457          
1 66433U 25259M   25343.66668981  .00150152  00000+0  35423-2 0  9994
2 66433  43.0006  65.4860 0001144 262.2240  33.4394 15.40607256  5786
STARLINK-35389          
1 66434U 25259N   25343.66668981  .00063547  00000+0  15176-2 0  9999
2 66434  43.0003  65.4560 0000911 276.0063  32.0765 15.40666001  5788
STARLINK-35502          
1 66435U 25259P   25343.66668981  .00154433  00000+0  36409-2 0  9997
2 66435  43.0004  65.4257 0000986 278.1103  42.4440 15.40608472  5786
STARLINK-35501          
1 66436U 25259Q   25343.66668981  .00102621  00000+0  24369-2 0  9992
2 66436  43.0003  65.3642 0001249 305.0721  40.3390 15.40627142  5788
STARLINK-35474          
1 66437U 25259R   25343.66668981 -.00120167  00000+0 -29099-2 0  9995
2 66437  43.0001  65.3334 0001441 289.5290  68.2807 15.40751204  5785
STARLINK-34681          
1 66438U 25259S   25343.66668981 -.02299456  00000+0 -57877-1 0  9990
2 66438  43.0002  65.3070 0001518 287.2323  81.8207 15.42567890  5672
STARLINK-35327          
1 66439U 25259T   25343.66668981  .00125479  00000+0  29706-2 0  9991
2 66439  43.0004  65.3972 0000800 300.0096  32.9085 15.40611685  5783
